[{"model": "application.adress", "pk": 13, "fields": {"region": "Ile-de-France", "departement": "Paris", "postal_code": "75008", "city": " ", "street_adress": "87 rue Cyril Hanouna"}}, {"model": "application.adress", "pk": 14, "fields": {"region": "Auvergne-Rh\u00f4ne-Alpes", "departement": "Ain", "postal_code": "01450", "city": "CHALLES LA MONTAGNE", "street_adress": "96 rue Saint-Denis"}}, {"model": "application.adress", "pk": 15, "fields": {"region": "\u00cele-de-France", "departement": "Paris", "postal_code": "75018", "city": "PARIS 18", "street_adress": "6 Rue Hermann-Lachapelle"}}, {"model": "application.adress", "pk": 16, "fields": {"region": "Provence-Alpes-C\u00f4te d'Azur", "departement": "Var", "postal_code": "83720", "city": "TRANS EN PROVENCE", "street_adress": "40 all\u00e9e des basses rives"}}, {"model": "application.adress", "pk": 17, "fields": {"region": "Provence-Alpes-C\u00f4te d'Azur", "departement": "Alpes-Maritimes", "postal_code": "06000", "city": "NICE", "street_adress": "14 rue d'italie"}}, {"model": "application.adress", "pk": 18, "fields": {"region": "\u00cele-de-France", "departement": "Paris", "postal_code": "75018", "city": "PARIS 18", "street_adress": "24 rue du cherche-midi"}}, {"model": "application.adress", "pk": 19, "fields": {"region": "Occitanie", "departement": "Pyr\u00e9n\u00e9es-Orientales", "postal_code": "66000", "city": "PERPIGNAN", "street_adress": "21 rue de la gagne"}}, {"model": "application.adress", "pk": 20, "fields": {"region": "Nouvelle-Aquitaine", "departement": "Gironde", "postal_code": "33000", "city": "BORDEAUX", "street_adress": "20 rue lol"}}, {"model": "application.adress", "pk": 21, "fields": {"region": "Occitanie", "departement": "Aude", "postal_code": "11000", "city": "CARCASSONNE", "street_adress": "121 avenue fefzef"}}, {"model": "application.adress", "pk": 22, "fields": {"region": "\u00cele-de-France", "departement": "Seine-et-Marne", "postal_code": "77000", "city": "VAUX LE PENIL", "street_adress": "12 rue fefzf"}}, {"model": "application.adress", "pk": 23, "fields": {"region": "\u00cele-de-France", "departement": "Paris", "postal_code": "75018", "city": "PARIS 18", "street_adress": "24 rue du cherche-midi"}}]